{"type": "FeatureCollection", "features": [ {"type": "Feature", "properties": {"norad_id": 44476, "name": "INTELSAT 39 (IS-39)", "group": "intelsat", "lat": 0.019246102778518417, "lon": -17.374504545062535, "alt_km": 35790.19932083218, "timestamp": "2025-12-03T13:52:09.233558+00:00", "meta": {"OBJECT_NAME": "INTELSAT 39 (IS-39)", "OBJECT_ID": "2019-049B", "EPOCH": "2025-12-03T05:29:11.878080", "MEAN_MOTION": 1.00270143, "ECCENTRICITY": 8.872e-05, "INCLINATION": 0.0161, "RA_OF_ASC_NODE": 313.7888, "ARG_OF_PERICENTER": 200.448, "MEAN_ANOMALY": 62.3341, "EPHEMERIS_TYPE": 0, "CLASSIFICATION_TYPE": "U", "NORAD_CAT_ID": 44476, "ELEMENT_SET_NO": 999, "REV_AT_EPOCH": 2316, "BSTAR": 0, "MEAN_MOTION_DOT": 5.2e-07, "MEAN_MOTION_DDOT": 0}, "tle": {"line1": "1 44476U 19049B   25337.22860970  .00000052  00000+0  00000+0 0  9997", "line2": "2 44476   0.0161 313.7888 0000887 200.4480  62.3341  1.00270143 23163"}}, "geometry": {"type": "Point", "coordinates": [-17.374504545062535, 0.019246102778518417]}}, {"type": "Feature", "properties": {"norad_id": 46114, "name": "GALAXY 30 (G-30)", "group": "intelsat", "lat": -0.01609296350730661, "lon": 155.6607518804155, "alt_km": 35787.02282169762, "timestamp": "2025-12-03T13:52:09.233570+00:00", "meta": {"OBJECT_NAME": "GALAXY 30 (G-30)", "OBJECT_ID": "2020-056C", "EPOCH": "2025-12-03T06:18:44.629920", "MEAN_MOTION": 1.0027272, "ECCENTRICITY": 0.00024466, "INCLINATION": 0.0137, "RA_OF_ASC_NODE": 307.2477, "ARG_OF_PERICENTER": 305.2154, "MEAN_ANOMALY": 149.5868, "EPHEMERIS_TYPE": 0, "CLASSIFICATION_TYPE": "U", "NORAD_CAT_ID": 46114, "ELEMENT_SET_NO": 999, "REV_AT_EPOCH": 1932, "BSTAR": 0, "MEAN_MOTION_DOT": 5.5e-07, "MEAN_MOTION_DDOT": 0}, "tle": {"line1": "1 46114U 20056C   25337.26301655  .00000055  00000+0  00000+0 0  9995", "line2": "2 46114   0.0137 307.2477 0002446 305.2154 149.5868  1.00272720 19322"}}, "geometry": {"type": "Point", "coordinates": [155.6607518804155, -0.01609296350730661]}}, {"type": "Feature", "properties": {"norad_id": 54026, "name": "GALAXY 33 (G-33)", "group": "intelsat", "lat": 0.00041379648586928634, "lon": 147.6685703260736, "alt_km": 35787.199091759765, "timestamp": "2025-12-03T13:52:09.233582+00:00", "meta": {"OBJECT_NAME": "GALAXY 33 (G-33)", "OBJECT_ID": "2022-128A", "EPOCH": "2025-12-02T16:34:35.368896", "MEAN_MOTION": 1.00272458, "ECCENTRICITY": 0.0001946, "INCLINATION": 0.0146, "RA_OF_ASC_NODE": 335.983, "ARG_OF_PERICENTER": 271.3406, "MEAN_ANOMALY": 300.1238, "EPHEMERIS_TYPE": 0, "CLASSIFICATION_TYPE": "U", "NORAD_CAT_ID": 54026, "ELEMENT_SET_NO": 999, "REV_AT_EPOCH": 1177, "BSTAR": 0, "MEAN_MOTION_DOT": 9.9e-07, "MEAN_MOTION_DDOT": 0}, "tle": {"line1": "1 54026U 22128A   25336.69068714  .00000099  00000+0  00000+0 0  9998", "line2": "2 54026   0.0146 335.9830 0001946 271.3406 300.1238  1.00272458 11776"}}, "geometry": {"type": "Point", "coordinates": [147.6685703260736, 0.00041379648586928634]}}, {"type": "Feature", "properties": {"norad_id": 54027, "name": "GALAXY 34 (G-34)", "group": "intelsat", "lat": -0.004815685600254098, "lon": 151.6729399979767, "alt_km": 35786.31830950742, "timestamp": "2025-12-03T13:52:09.233593+00:00", "meta": {"OBJECT_NAME": "GALAXY 34 (G-34)", "OBJECT_ID": "2022-128B", "EPOCH": "2025-12-03T04:34:54.578208", "MEAN_MOTION": 1.00273357, "ECCENTRICITY": 0.0001417, "INCLINATION": 0.0131, "RA_OF_ASC_NODE": 329.5107, "ARG_OF_PERICENTER": 278.9008, "MEAN_ANOMALY": 123.608, "EPHEMERIS_TYPE": 0, "CLASSIFICATION_TYPE": "U", "NORAD_CAT_ID": 54027, "ELEMENT_SET_NO": 999, "REV_AT_EPOCH": 1194, "BSTAR": 0, "MEAN_MOTION_DOT": 7.8e-07, "MEAN_MOTION_DDOT": 0}, "tle": {"line1": "1 54027U 22128B   25337.19090947  .00000078  00000+0  00000+0 0  9995", "line2": "2 54027   0.0131 329.5107 0001417 278.9008 123.6080  1.00273357 11942"}}, "geometry": {"type": "Point", "coordinates": [151.6729399979767, -0.004815685600254098]}}, {"type": "Feature", "properties": {"norad_id": 54243, "name": "GALAXY 31 (G-31)", "group": "intelsat", "lat": -0.001430289902891706, "lon": 159.63660761485013, "alt_km": 35788.79747053176, "timestamp": "2025-12-03T13:52:09.233605+00:00", "meta": {"OBJECT_NAME": "GALAXY 31 (G-31)", "OBJECT_ID": "2022-153A", "EPOCH": "2025-12-03T06:19:52.021920", "MEAN_MOTION": 1.00271889, "ECCENTRICITY": 0.00021067, "INCLINATION": 0.0121, "RA_OF_ASC_NODE": 352.9297, "ARG_OF_PERICENTER": 274.9243, "MEAN_ANOMALY": 138.4493, "EPHEMERIS_TYPE": 0, "CLASSIFICATION_TYPE": "U", "NORAD_CAT_ID": 54243, "ELEMENT_SET_NO": 999, "REV_AT_EPOCH": 516, "BSTAR": 0, "MEAN_MOTION_DOT": 0, "MEAN_MOTION_DDOT": 0}, "tle": {"line1": "1 54243U 22153A   25337.26379655  .00000000  00000+0  00000+0 0  9992", "line2": "2 54243   0.0121 352.9297 0002106 274.9243 138.4493  1.00271889  5161"}}, "geometry": {"type": "Point", "coordinates": [159.63660761485013, -0.001430289902891706]}}, {"type": "Feature", "properties": {"norad_id": 54244, "name": "GALAXY 32 (G-32)", "group": "intelsat", "lat": -0.02658670598355344, "lon": -170.34532954685318, "alt_km": 35790.897239238, "timestamp": "2025-12-03T13:52:09.233616+00:00", "meta": {"OBJECT_NAME": "GALAXY 32 (G-32)", "OBJECT_ID": "2022-153B", "EPOCH": "2025-12-03T06:28:28.697376", "MEAN_MOTION": 1.00270397, "ECCENTRICITY": 0.00025443, "INCLINATION": 0.01, "RA_OF_ASC_NODE": 324.0344, "ARG_OF_PERICENTER": 340.1889, "MEAN_ANOMALY": 134.262, "EPHEMERIS_TYPE": 0, "CLASSIFICATION_TYPE": "U", "NORAD_CAT_ID": 54244, "ELEMENT_SET_NO": 999, "REV_AT_EPOCH": 1117, "BSTAR": 0, "MEAN_MOTION_DOT": -1.55e-06, "MEAN_MOTION_DDOT": 0}, "tle": {"line1": "1 54244U 22153B   25337.26977659 -.00000155  00000+0  00000+0 0  9993", "line2": "2 54244   0.0100 324.0344 0002544 340.1889 134.2620  1.00270397 11177"}}, "geometry": {"type": "Point", "coordinates": [-170.34532954685318, -0.02658670598355344]}}, {"type": "Feature", "properties": {"norad_id": 54741, "name": "GALAXY 35 (G-35)", "group": "intelsat", "lat": -0.026145457110807794, "lon": -172.47313769992866, "alt_km": 35783.45590529279, "timestamp": "2025-12-03T13:52:09.233628+00:00", "meta": {"OBJECT_NAME": "GALAXY 35 (G-35)", "OBJECT_ID": "2022-170A", "EPOCH": "2025-12-03T06:27:51.256800", "MEAN_MOTION": 1.00269336, "ECCENTRICITY": 0.00028442, "INCLINATION": 0.0152, "RA_OF_ASC_NODE": 332.9147, "ARG_OF_PERICENTER": 288.6956, "MEAN_ANOMALY": 174.5969, "EPHEMERIS_TYPE": 0, "CLASSIFICATION_TYPE": "U", "NORAD_CAT_ID": 54741, "ELEMENT_SET_NO": 999, "REV_AT_EPOCH": 1092, "BSTAR": 0, "MEAN_MOTION_DOT": 0, "MEAN_MOTION_DDOT": 0}, "tle": {"line1": "1 54741U 22170A   25337.26934325  .00000000  00000+0  00000+0 0  9995", "line2": "2 54741   0.0152 332.9147 0002844 288.6956 174.5969  1.00269336 10925"}}, "geometry": {"type": "Point", "coordinates": [-172.47313769992866, -0.026145457110807794]}}, {"type": "Feature", "properties": {"norad_id": 54742, "name": "GALAXY 36 (G-36)", "group": "intelsat", "lat": -0.031033649384839962, "lon": -168.32401197622616, "alt_km": 35785.0919700979, "timestamp": "2025-12-03T13:52:09.233639+00:00", "meta": {"OBJECT_NAME": "GALAXY 36 (G-36)", "OBJECT_ID": "2022-170B", "EPOCH": "2025-12-03T06:28:58.648800", "MEAN_MOTION": 1.00270419, "ECCENTRICITY": 6.027e-05, "INCLINATION": 0.0166, "RA_OF_ASC_NODE": 263.0422, "ARG_OF_PERICENTER": 345.4362, "MEAN_ANOMALY": 192.1326, "EPHEMERIS_TYPE": 0, "CLASSIFICATION_TYPE": "U", "NORAD_CAT_ID": 54742, "ELEMENT_SET_NO": 999, "REV_AT_EPOCH": 1080, "BSTAR": 0, "MEAN_MOTION_DOT": -1.66e-06, "MEAN_MOTION_DDOT": 0}, "tle": {"line1": "1 54742U 22170B   25337.27012325 -.00000166  00000+0  00000+0 0  9998", "line2": "2 54742   0.0166 263.0422 0000602 345.4362 192.1326  1.00270419 10808"}}, "geometry": {"type": "Point", "coordinates": [-168.32401197622616, -0.031033649384839962]}}, {"type": "Feature", "properties": {"norad_id": 57493, "name": "GALAXY 37 (G-37)", "group": "intelsat", "lat": -0.017871879734001075, "lon": 153.667183076481, "alt_km": 35788.35722420291, "timestamp": "2025-12-03T13:52:09.233651+00:00", "meta": {"OBJECT_NAME": "GALAXY 37 (G-37)", "OBJECT_ID": "2023-112A", "EPOCH": "2025-12-03T06:18:14.677632", "MEAN_MOTION": 1.00272962, "ECCENTRICITY": 0.0002473, "INCLINATION": 0.0155, "RA_OF_ASC_NODE": 300.5341, "ARG_OF_PERICENTER": 317.7387, "MEAN_ANOMALY": 141.6577, "EPHEMERIS_TYPE": 0, "CLASSIFICATION_TYPE": "U", "NORAD_CAT_ID": 57493, "ELEMENT_SET_NO": 999, "REV_AT_EPOCH": 857, "BSTAR": 0, "MEAN_MOTION_DOT": 6.7e-07, "MEAN_MOTION_DDOT": 0}, "tle": {"line1": "1 57493U 23112A   25337.26266988  .00000067  00000+0  00000+0 0  9995", "line2": "2 57493   0.0155 300.5341 0002473 317.7387 141.6577  1.00272962  8579"}}, "geometry": {"type": "Point", "coordinates": [153.667183076481, -0.017871879734001075]}}]}